GLOBALSTAR M001 [-]     
1 25162U 98008A   23331.78603951 -.00000040  00000+0  43705-3 0  9998
2 25162  52.0010 184.6342 0002628 112.1795 328.1495 12.38173897173426
GLOBALSTAR M004 [-]     
1 25163U 98008B   23331.35564934 -.00000028  00000+0  42094-3 0  9995
2 25163  52.0011 346.4024 0003282 107.8612 355.4800 12.63343138189918
GLOBALSTAR M002 [-]     
1 25164U 98008C   23331.87212620 -.00000043  00000+0  66405-3 0  9994
2 25164  52.0002 222.6370 0001279 133.3590 226.7337 11.61497598118140
GLOBALSTAR M003 [-]     
1 25165U 98008D   23332.07164856  .00000044  00000+0  14199-2 0  9997
2 25165  51.9788 299.2952 0007491 231.4649 206.4473 12.11956508164541
GLOBALSTAR M014 [-]     
1 25306U 98023A   23331.70979845 -.00000050  00000+0  50988-3 0  9997
2 25306  51.9802 158.1955 0001866  71.4935   9.4052 11.65462601125007
GLOBALSTAR M006 [-]     
1 25307U 98023B   23331.93673521 -.00000032  00000+0  88597-3 0  9992
2 25307  51.9909 188.8956 0003871 148.7898 315.7627 11.58157349151104
GLOBALSTAR M015 [-]     
1 25308U 98023C   23332.13005156 -.00000059  00000+0  33698-3 0  9990
2 25308  51.9822 260.9017 0012299 142.3499 321.2632 11.48858310129276
GLOBALSTAR M008 [-]     
1 25309U 98023D   23331.96655959 -.00000060  00000+0  28715-3 0  9999
2 25309  51.9993  42.5154 0002813  70.6788 340.5197 12.36032449168017
